CUTE-1 (CO-55)          
1 27844U 03031E   26170.56610412  .00000202  00000+0  10624-3 0  9992
2 27844  98.6736 179.0951 0009689 171.1603 188.9749 14.24336935192018
CUBESAT XI-IV (CO-57)   
1 27848U 03031J   26170.48547204  .00000165  00000+0  91471-4 0  9993
2 27848  98.6765 178.7263 0009188 190.0962 170.0034 14.23621824191705
CUBESAT XI-V            
1 28895U 05043F   26170.37304894  .00001074  00000+0  17676-3 0  9999
2 28895  98.2987 326.0406 0013797 193.6141 166.4695 14.72636457102072
CUTE-1.7+APD II (CO-65) 
1 32785U 08021C   26170.56893747  .00004483  00000+0  28387-3 0  9990
2 32785  97.8277 152.0370 0009529  31.2532 328.9261 15.09469530985551
CANX-2                  
1 32790U 08021H   26170.48138631  .00003274  00000+0  23110-3 0  9997
2 32790  97.8642 150.3034 0011390  44.3098 315.9038 15.05633347985151
SEEDS II (CO-66)        
1 32791U 08021J   26170.55102446  .00014814  00000+0  46963-3 0  9994
2 32791  97.7522 168.5617 0000744 349.7207  10.4018 15.32817335987654
SWISSCUBE               
1 35932U 09051B   26170.49485083  .00000714  00000+0  15057-3 0  9996
2 35932  98.4033  78.4234 0006120 194.9900 165.1121 14.62485188889492
BEESAT-1                
1 35933U 09051C   26170.50548631  .00000604  00000+0  13109-3 0  9992
2 35933  98.3961  78.0648 0004361 208.2389 151.8576 14.61723595889528
ITUPSAT1                
1 35935U 09051E   26170.29286771  .00000568  00000+0  12725-3 0  9996
2 35935  98.4046  77.0386 0006335 226.1339 133.9337 14.60443384889047
TISAT 1                 
1 36799U 10035E   26170.33820944  .00017593  00000+0  57550-3 0  9991
2 36799  98.0711 117.0778 0001699 165.4538 194.6750 15.31776747868035
AEROCUBE 4.5A           
1 38767U 12048K   26169.97803684  .00461735  96258-4  99291-3 0  9998
2 38767  64.6225  20.3137 0019371 229.0136 130.9352 15.97862216372943
STRAND-1                
1 39090U 13009E   26170.42314841  .00000193  00000+0  79379-4 0  9998
2 39090  98.3923 350.6024 0007842 217.8573 142.2063 14.37164306697387
